[{"OBJECT_NAME":"TEVEL2-3","OBJECT_ID":"2025-052J","EPOCH":"2026-03-09T15:29:22.754400","MEAN_MOTION":15.30377031,"ECCENTRICITY":0.0004761,"INCLINATION":97.3994,"RA_OF_ASC_NODE":324.7775,"ARG_OF_PERICENTER":105.7353,"MEAN_ANOMALY":254.4413,"EPHEMERIS_TYPE":0,"CLASSIFICATION_TYPE":"U","NORAD_CAT_ID":63218,"ELEMENT_SET_NO":999,"REV_AT_EPOCH":5485,"BSTAR":0.00069446,"MEAN_MOTION_DOT":0.00020365,"MEAN_MOTION_DDOT":0},{"OBJECT_NAME":"STARLINK-35889","OBJECT_ID":"2025-303AC","EPOCH":"2026-03-09T23:14:27.235392","MEAN_MOTION":15.2758588,"ECCENTRICITY":7.669e-5,"INCLINATION":43,"RA_OF_ASC_NODE":309.4949,"ARG_OF_PERICENTER":265.206,"MEAN_ANOMALY":94.8704,"EPHEMERIS_TYPE":0,"CLASSIFICATION_TYPE":"U","NORAD_CAT_ID":67189,"ELEMENT_SET_NO":999,"REV_AT_EPOCH":1277,"BSTAR":0.0013174817,"MEAN_MOTION_DOT":0.00036176,"MEAN_MOTION_DDOT":0}]
